[ {"name": "STARLINK-35865", "line1": "1 67826U 26033F   26195.53496779  .00011413  00000+0  42357-3 0  9999", "line2": "2 67826  43.0003 270.6727 0001381 250.3342 109.7360 15.27583370 24074"}, {"name": "STARLINK-36289", "line1": "1 67827U 26033G   26195.30168746  .00010075  00000+0  37509-3 0  9991", "line2": "2 67827  42.9926 272.3645 0001478 256.0122 104.0565 15.27583751 24035"}, {"name": "STARLINK-36670", "line1": "1 67828U 26033H   26195.49399392  .00009683  00000+0  36091-3 0  9993", "line2": "2 67828  42.9997 271.2342 0001765 270.2733  89.7917 15.27582245 24061"}, {"name": "STARLINK-36144", "line1": "1 67829U 26033J   26195.48885551  .00005588  00000+0  21244-3 0  9994", "line2": "2 67829  42.9985 271.1911 0001504 274.5946  85.4734 15.27579502 24066"}, {"name": "STARLINK-36611", "line1": "1 67830U 26033K   26195.50683972  .00001232  00000+0  54295-4 0  9997", "line2": "2 67830  42.9986 271.3269 0001586 272.2293  87.8377 15.27576720 24065"}, {"name": "STARLINK-36661", "line1": "1 67831U 26033L   26195.50299131  .00006301  00000+0  23829-3 0  9998", "line2": "2 67831  42.9976 271.3044 0001309 275.0100  85.0602 15.27578835 24067"}, {"name": "STARLINK-36662", "line1": "1 67832U 26033M   26195.53976432  .00004018  00000+0  15546-3 0  9998", "line2": "2 67832  43.0016 263.6532 0001918 270.3187  89.7445 15.27578120 24153"}, {"name": "STARLINK-36659", "line1": "1 67833U 26033N   26195.26313536  .00004022  00000+0  15554-3 0  9993", "line2": "2 67833  43.0002 272.0633 0001748 279.7582  80.3072 15.27590828 24037"}, {"name": "STARLINK-36655", "line1": "1 67834U 26033P   26195.51054759  .00012724  00000+0  47095-3 0  9994", "line2": "2 67834  42.9983 270.4864 0002176 275.3245  84.7358 15.27589672 24070"}, {"name": "STARLINK-36657", "line1": "1 67835U 26033Q   26195.51697236  .00005283  00000+0  20141-3 0  9993", "line2": "2 67835  42.9978 270.5271 0001369 272.5981  87.4714 15.27570809 24075"}, {"name": "STARLINK-36650", "line1": "1 67836U 26033R   26195.48499989  .00007089  00000+0  26686-3 0  9991", "line2": "2 67836  42.9980 271.1596 0001585 273.1982  86.8688 15.27581622 24061"}, {"name": "STARLINK-36649", "line1": "1 67837U 26033S   26195.49527579  .00007847  00000+0  29432-3 0  9994", "line2": "2 67837  42.9984 271.2375 0000759 260.9305  99.1461 15.27583894 24066"}, {"name": "STARLINK-36654", "line1": "1 67838U 26033T   26195.54653187  .00007160  00000+0  26953-3 0  9999", "line2": "2 67838  43.0013 270.7618 0002258 280.0470  80.0127 15.27571750 24075"}, {"name": "STARLINK-36652", "line1": "1 67839U 26033U   26195.47728727  .00004869  00000+0  18635-3 0  9996", "line2": "2 67839  43.0017 271.1049 0002827 289.3442  70.7104 15.27579887 24065"}, {"name": "STARLINK-36651", "line1": "1 67840U 26033V   26195.21188720  .00008694  00000+0  32507-3 0  9997", "line2": "2 67840  43.0063 272.5551 0002697 293.6126  66.4442 15.27580984 24026"}, {"name": "STARLINK-36656", "line1": "1 67841U 26033W   26195.27085030  .00007528  00000+0  28279-3 0  9990", "line2": "2 67841  43.0096 272.1372 0003816 293.8480  66.1971 15.27579527 24035"}, {"name": "STARLINK-36653", "line1": "1 67842U 26033X   26195.52853815  .00010513  00000+0  39098-3 0  9992", "line2": "2 67842  43.0034 270.6266 0002085 274.9111  85.1503 15.27581751 24079"}, {"name": "STARLINK-36589", "line1": "1 67843U 26033Y   26195.52083158 -.00001741  00000+0 -53791-4 0  9990", "line2": "2 67843  43.0027 270.5644 0002605 275.6308  84.4246 15.27552782 24073"}, {"name": "STARLINK-36598", "line1": "1 67844U 26033Z   26195.50041795  .00006686  00000+0  25222-3 0  9998", "line2": "2 67844  42.9982 271.2796 0000652 255.0294 105.0485 15.27584784 24065"}, {"name": "STARLINK-36606", "line1": "1 67845U 26033AA  26195.51825620 -.00000276  00000+0 -44938-6 0  9996", "line2": "2 67845  43.0050 270.5379 0003589 277.1756  82.8688 15.27573723 24072"}, {"name": "STARLINK-36658", "line1": "1 67846U 26033AB  26195.49270652  .00005400  00000+0  20564-3 0  9991", "line2": "2 67846  43.0010 271.2222 0001567 269.7571  90.3101 15.27573443 24062"}, {"name": "STARLINK-36618", "line1": "1 67847U 26033AC  26195.43932816  .00002937  00000+0  11622-3 0  9990", "line2": "2 67847  42.9998 256.6250 0002002 270.9551  89.1071 15.27581074 24220"}, {"name": "STARLINK-36660", "line1": "1 67848U 26033AD  26195.49013554  .00001885  00000+0  78004-4 0  9995", "line2": "2 67848  42.9993 271.1994 0001436 268.9340  91.1348 15.27580670 24069"}, {"name": "STARLINK-36602", "line1": "1 67849U 26033AE  26195.50427290  .00011625  00000+0  43124-3 0  9991", "line2": "2 67849  42.9991 271.3084 0001525 271.7467  88.3210 15.27584881 24065"}, {"name": "STARLINK-36840", "line1": "1 67850U 26034A   26195.68509515  .00007731  00000+0  27282-3 0  9994", "line2": "2 67850  53.1586 334.0721 0000682 128.5276 231.5786 15.30203381 23488"}, {"name": "STARLINK-36348", "line1": "1 67851U 26034B   26195.83335647  .00051514  00000+0  15282-2 0  9999", "line2": "2 67851  53.1601 333.8320 0001006  64.9829 169.0668 15.34341651  5916"}, {"name": "STARLINK-36276", "line1": "1 67852U 26034C   26195.66938081 -.00003632  00000+0 -11063-3 0  9996", "line2": "2 67852  53.1603 334.6919 0000592  74.7436 285.3630 15.30184379 23474"}, {"name": "STARLINK-36785", "line1": "1 67853U 26034D   26195.64721825  .00016965  00000+0  58348-3 0  9999", "line2": "2 67853  53.1621 334.5251 0001181  77.9081 282.2052 15.30207648 23478"}, {"name": "STARLINK-36608", "line1": "1 67854U 26034E   26195.69881135  .00007682  00000+0  27119-3 0  9994", "line2": "2 67854  53.1616 334.1317 0001034  98.2008 261.9110 15.30205084 23475"}, {"name": "STARLINK-36838", "line1": "1 67855U 26034F   26195.85170757  .00026996  00000+0  87615-3 0  9990", "line2": "2 67855  53.1611 332.9602 0001715  43.0162 317.0973 15.31788000 23519"}]