OBJECT_NAME,OBJECT_ID,EPOCH,MEAN_MOTION,ECCENTRICITY,INCLINATION,RA_OF_ASC_NODE,ARG_OF_PERICENTER,MEAN_ANOMALY,EPHEMERIS_TYPE,CLASSIFICATION_TYPE,NORAD_CAT_ID,ELEMENT_SET_NO,REV_AT_EPOCH,BSTAR,MEAN_MOTION_DOT,MEAN_MOTION_DDOT
STARLINK-35865,2026-033F,2026-07-14T12:50:21.217056,15.27583370,.0001381,43.0003,270.6727,250.3342,109.7360,0,U,67826,999,2407,.42357E-3,.11413E-3,0
STARLINK-36289,2026-033G,2026-07-14T07:14:25.796544,15.27583751,.00014787,42.9926,272.3645,256.0122,104.0565,0,U,67827,999,2403,.37509155E-3,.10075E-3,0
STARLINK-36670,2026-033H,2026-07-14T11:51:21.074688,15.27582245,.00017653,42.9997,271.2342,270.2733,89.7917,0,U,67828,999,2406,.36091484E-3,.9683E-4,0
STARLINK-36144,2026-033J,2026-07-14T11:43:57.116064,15.27579502,.00015046,42.9985,271.1911,274.5946,85.4734,0,U,67829,999,2406,.21243745E-3,.5588E-4,0
STARLINK-36611,2026-033K,2026-07-14T12:09:50.951808,15.27576720,.0001586,42.9986,271.3269,272.2293,87.8377,0,U,67830,999,2406,.54295E-4,.1232E-4,0
STARLINK-36661,2026-033L,2026-07-14T12:04:18.449184,15.27578835,.00013094,42.9976,271.3044,275.0100,85.0602,0,U,67831,999,2406,.23829175E-3,.6301E-4,0
STARLINK-36662,2026-033M,2026-07-14T12:57:15.637248,15.27578120,.0001918,43.0016,263.6532,270.3187,89.7445,0,U,67832,999,2415,.15546E-3,.4018E-4,0
STARLINK-36659,2026-033N,2026-07-14T06:18:54.895104,15.27590828,.00017483,43.0002,272.0633,279.7582,80.3072,0,U,67833,999,2403,.15553577E-3,.4022E-4,0
STARLINK-36655,2026-033P,2026-07-14T12:15:11.311776,15.27589672,.00021768,42.9983,270.4864,275.3245,84.7358,0,U,67834,999,2407,.47095498E-3,.12724E-3,0
STARLINK-36657,2026-033Q,2026-07-14T12:24:26.411904,15.27570809,.0001369,42.9978,270.5271,272.5981,87.4714,0,U,67835,999,2407,.20140536E-3,.5283E-4,0
STARLINK-36650,2026-033R,2026-07-14T11:38:23.990496,15.27581622,.00015859,42.9980,271.1596,273.1982,86.8688,0,U,67836,999,2406,.26686089E-3,.7089E-4,0
STARLINK-36649,2026-033S,2026-07-14T11:53:11.828256,15.27583894,.00007591,42.9984,271.2375,260.9305,99.1461,0,U,67837,999,2406,.29432144E-3,.7847E-4,0
STARLINK-36654,2026-033T,2026-07-14T13:07:00.353568,15.27571750,.0002258,43.0013,270.7618,280.0470,80.0127,0,U,67838,999,2407,.26953E-3,.716E-4,0
STARLINK-36652,2026-033U,2026-07-14T11:27:17.620128,15.27579887,.00028279,43.0017,271.1049,289.3442,70.7104,0,U,67839,999,2406,.18634937E-3,.4869E-4,0
STARLINK-36651,2026-033V,2026-07-14T05:05:07.054080,15.27580984,.00026973,43.0063,272.5551,293.6126,66.4442,0,U,67840,999,2402,.32507275E-3,.8694E-4,0
STARLINK-36656,2026-033W,2026-07-14T06:30:01.465920,15.27579527,.00038165,43.0096,272.1372,293.8480,66.1971,0,U,67841,999,2403,.28279127E-3,.7528E-4,0
STARLINK-36653,2026-033X,2026-07-14T12:41:05.696160,15.27581751,.0002085,43.0034,270.6266,274.9111,85.1503,0,U,67842,999,2407,.39098E-3,.10513E-3,0
STARLINK-36589,2026-033Y,2026-07-14T12:29:59.848512,15.27552782,.00026058,43.0027,270.5644,275.6308,84.4246,0,U,67843,999,2407,-.53791258E-4,-.1741E-4,0
STARLINK-36598,2026-033Z,2026-07-14T12:00:36.110880,15.27584784,.0000652,42.9982,271.2796,255.0294,105.0485,0,U,67844,999,2406,.25222E-3,.6686E-4,0
STARLINK-36606,2026-033AA,2026-07-14T12:26:17.335680,15.27573723,.0003589,43.0050,270.5379,277.1756,82.8688,0,U,67845,999,2407,-.44938E-6,-.276E-5,0
STARLINK-36658,2026-033AB,2026-07-14T11:49:29.843328,15.27573443,.00015672,43.0010,271.2222,269.7571,90.3101,0,U,67846,999,2406,.20563921E-3,.54E-4,0
STARLINK-36618,2026-033AC,2026-07-14T10:32:37.953024,15.27581074,.00020028,42.9998,256.6250,270.9551,89.1071,0,U,67847,999,2422,.1162206E-3,.2937E-4,0
STARLINK-36660,2026-033AD,2026-07-14T11:45:47.710656,15.27580670,.00014362,42.9993,271.1994,268.9340,91.1348,0,U,67848,999,2406,.78003993E-4,.1885E-4,0
STARLINK-36602,2026-033AE,2026-07-14T12:06:09.178560,15.27584881,.00015258,42.9991,271.3084,271.7467,88.3210,0,U,67849,999,2406,.43123898E-3,.11625E-3,0
STARLINK-36840,2026-034A,2026-07-14T16:26:32.220960,15.30203381,.0000682,53.1586,334.0721,128.5276,231.5786,0,U,67850,999,2348,.27282E-3,.7731E-4,0
STARLINK-36348,2026-034B,2026-07-14T20:00:01.999008,15.34341651,.0001006,53.1601,333.8320,64.9829,169.0668,0,U,67851,999,591,.15282E-2,.51514E-3,0
STARLINK-36276,2026-034C,2026-07-14T16:03:54.501984,15.30184379,.0000592,53.1603,334.6919,74.7436,285.3630,0,U,67852,999,2347,-.11063E-3,-.3632E-4,0
STARLINK-36785,2026-034D,2026-07-14T15:31:59.656800,15.30207648,.0001181,53.1621,334.5251,77.9081,282.2052,0,U,67853,999,2347,.58348E-3,.16965E-3,0
STARLINK-36608,2026-034E,2026-07-14T16:46:17.300640,15.30205084,.0001034,53.1616,334.1317,98.2008,261.9110,0,U,67854,999,2347,.27119E-3,.7682E-4,0
STARLINK-36838,2026-034F,2026-07-14T20:26:27.534048,15.31788000,.0001715,53.1611,332.9602,43.0162,317.0973,0,U,67855,999,2351,.87615E-3,.26996E-3,0
